STARLINK-4447           
1 53472U 22099H   22241.66667824 -.01199315  00000+0 -13304-1 0  9991
2 53472  97.6560   0.4681 0001784  58.1010   9.1426 15.65546014  2887
STARLINK-4383           
1 53473U 22099J   22241.66667824 -.01224706  00000+0 -13590-1 0  9992
2 53473  97.6560   0.4684 0001794  56.2621  13.5404 15.65594805  2885
STARLINK-4445           
1 53474U 22099K   22241.66667824 -.01207137  00000+0 -13366-1 0  9993
2 53474  97.6557   0.4674 0001841  57.7227  14.6565 15.65609134  2884
STARLINK-4389           
1 53475U 22099L   22241.66667824 -.01229001  00000+0 -13638-1 0  9990
2 53475  97.6559   0.4684 0001749  60.6099   9.8347 15.65604263  2887
STARLINK-4378           
1 53476U 22099M   22241.66667824 -.01223609  00000+0 -13586-1 0  9991
2 53476  97.6561   0.4681 0001617  69.3254 359.1937 15.65579074  2888
STARLINK-4412           
1 53477U 22099N   22241.66667824 -.01200581  00000+0 -13292-1 0  9990
2 53477  97.6559   0.4682 0001853  61.9753   9.7644 15.65596997  2887
STARLINK-4433           
1 53478U 22099P   22241.66667824 -.01229092  00000+0 -13647-1 0  9993
2 53478  97.6559   0.4683 0001723  67.2381   1.9217 15.65590124  2887
STARLINK-4436           
1 53479U 22099Q   22241.66667824 -.01206969  00000+0 -13360-1 0  9994
2 53479  97.6557   0.4679 0001870  56.9451  16.0762 15.65616207  2880
STARLINK-4442           
1 53480U 22099R   22241.66667824 -.01215407  00000+0 -13472-1 0  9997
2 53480  97.6561   0.4682 0001841  57.5250  13.5672 15.65600919  2888
STARLINK-4302           
1 53481U 22099S   22241.66667824 -.01207475  00000+0 -13358-1 0  9997
2 53481  97.6557   0.4681 0001934  51.7184  22.5864 15.65630885  2886
STARLINK-4360           
1 53482U 22099T   22241.66667824 -.01206416  00000+0 -13349-1 0  9992
2 53482  97.6557   0.4677 0001997  47.9263  25.7372 15.65622814  2888
STARLINK-4401           
1 53483U 22099U   22241.66667824 -.01207138  00000+0 -13343-1 0  9999
2 53483  97.6557   0.4680 0001836  58.3572  17.8729 15.65652142  2889
STARLINK-4426           
1 53484U 22099V   22241.66667824 -.01206749  00000+0 -13347-1 0  9991
2 53484  97.6556   0.4678 0001608  95.0992 339.8472 15.65637942  2880
STARLINK-4430           
1 53485U 22099W   22241.66667824 -.01206665  00000+0 -13329-1 0  9999
2 53485  97.6557   0.4682 0001985  48.6970  28.8165 15.65666011  2888
STARLINK-4431           
1 53486U 22099X   22241.66667824 -.01206884  00000+0 -13344-1 0  9990
2 53486  97.6557   0.4680 0001800  60.7579  14.8306 15.65644808  2885
STARLINK-4432           
1 53487U 22099Y   22241.66667824 -.01221488  00000+0 -13497-1 0  9997
2 53487  97.6557   0.4689 0001891  52.4872  26.3026 15.65692200  2885
STARLINK-4421           
1 53488U 22099Z   22241.66667824 -.01218532  00000+0 -13474-1 0  9999
2 53488  97.6558   0.4688 0001791  58.7312  18.1351 15.65668700  2881
