[{"OBJECT_NAME":"STARLINK-4447","OBJECT_ID":"2022-099H","EPOCH":"2022-08-29T16:00:00.999936","MEAN_MOTION":15.65546014,"ECCENTRICITY":0.0001784,"INCLINATION":97.656,"RA_OF_ASC_NODE":0.4681,"ARG_OF_PERICENTER":58.101,"MEAN_ANOMALY":9.1426,"EPHEMERIS_TYPE":0,"CLASSIFICATION_TYPE":"U","NORAD_CAT_ID":53472,"ELEMENT_SET_NO":999,"REV_AT_EPOCH":288,"BSTAR":-0.013304,"MEAN_MOTION_DOT":-0.01199315,"MEAN_MOTION_DDOT":0},{"OBJECT_NAME":"STARLINK-4383","OBJECT_ID":"2022-099J","EPOCH":"2022-08-29T16:00:00.999936","MEAN_MOTION":15.65594805,"ECCENTRICITY":0.0001794,"INCLINATION":97.656,"RA_OF_ASC_NODE":0.4684,"ARG_OF_PERICENTER":56.2621,"MEAN_ANOMALY":13.5404,"EPHEMERIS_TYPE":0,"CLASSIFICATION_TYPE":"U","NORAD_CAT_ID":53473,"ELEMENT_SET_NO":999,"REV_AT_EPOCH":288,"BSTAR":-0.01359,"MEAN_MOTION_DOT":-0.01224706,"MEAN_MOTION_DDOT":0},{"OBJECT_NAME":"STARLINK-4445","OBJECT_ID":"2022-099K","EPOCH":"2022-08-29T16:00:00.999936","MEAN_MOTION":15.65609134,"ECCENTRICITY":0.0001841,"INCLINATION":97.6557,"RA_OF_ASC_NODE":0.4674,"ARG_OF_PERICENTER":57.7227,"MEAN_ANOMALY":14.6565,"EPHEMERIS_TYPE":0,"CLASSIFICATION_TYPE":"U","NORAD_CAT_ID":53474,"ELEMENT_SET_NO":999,"REV_AT_EPOCH":288,"BSTAR":-0.013366,"MEAN_MOTION_DOT":-0.01207137,"MEAN_MOTION_DDOT":0},{"OBJECT_NAME":"STARLINK-4389","OBJECT_ID":"2022-099L","EPOCH":"2022-08-29T16:00:00.999936","MEAN_MOTION":15.65604263,"ECCENTRICITY":0.0001749,"INCLINATION":97.6559,"RA_OF_ASC_NODE":0.4684,"ARG_OF_PERICENTER":60.6099,"MEAN_ANOMALY":9.8347,"EPHEMERIS_TYPE":0,"CLASSIFICATION_TYPE":"U","NORAD_CAT_ID":53475,"ELEMENT_SET_NO":999,"REV_AT_EPOCH":288,"BSTAR":-0.013638,"MEAN_MOTION_DOT":-0.01229001,"MEAN_MOTION_DDOT":0},{"OBJECT_NAME":"STARLINK-4378","OBJECT_ID":"2022-099M","EPOCH":"2022-08-29T16:00:00.999936","MEAN_MOTION":15.65579074,"ECCENTRICITY":0.0001617,"INCLINATION":97.6561,"RA_OF_ASC_NODE":0.4681,"ARG_OF_PERICENTER":69.3254,"MEAN_ANOMALY":359.1937,"EPHEMERIS_TYPE":0,"CLASSIFICATION_TYPE":"U","NORAD_CAT_ID":53476,"ELEMENT_SET_NO":999,"REV_AT_EPOCH":288,"BSTAR":-0.013586,"MEAN_MOTION_DOT":-0.01223609,"MEAN_MOTION_DDOT":0},{"OBJECT_NAME":"STARLINK-4412","OBJECT_ID":"2022-099N","EPOCH":"2022-08-29T16:00:00.999936","MEAN_MOTION":15.65596997,"ECCENTRICITY":0.0001853,"INCLINATION":97.6559,"RA_OF_ASC_NODE":0.4682,"ARG_OF_PERICENTER":61.9753,"MEAN_ANOMALY":9.7644,"EPHEMERIS_TYPE":0,"CLASSIFICATION_TYPE":"U","NORAD_CAT_ID":53477,"ELEMENT_SET_NO":999,"REV_AT_EPOCH":288,"BSTAR":-0.013292,"MEAN_MOTION_DOT":-0.01200581,"MEAN_MOTION_DDOT":0},{"OBJECT_NAME":"STARLINK-4433","OBJECT_ID":"2022-099P","EPOCH":"2022-08-29T16:00:00.999936","MEAN_MOTION":15.65590124,"ECCENTRICITY":0.0001723,"INCLINATION":97.6559,"RA_OF_ASC_NODE":0.4683,"ARG_OF_PERICENTER":67.2381,"MEAN_ANOMALY":1.9217,"EPHEMERIS_TYPE":0,"CLASSIFICATION_TYPE":"U","NORAD_CAT_ID":53478,"ELEMENT_SET_NO":999,"REV_AT_EPOCH":288,"BSTAR":-0.013647,"MEAN_MOTION_DOT":-0.01229092,"MEAN_MOTION_DDOT":0},{"OBJECT_NAME":"STARLINK-4436","OBJECT_ID":"2022-099Q","EPOCH":"2022-08-29T16:00:00.999936","MEAN_MOTION":15.65616207,"ECCENTRICITY":0.000187,"INCLINATION":97.6557,"RA_OF_ASC_NODE":0.4679,"ARG_OF_PERICENTER":56.9451,"MEAN_ANOMALY":16.0762,"EPHEMERIS_TYPE":0,"CLASSIFICATION_TYPE":"U","NORAD_CAT_ID":53479,"ELEMENT_SET_NO":999,"REV_AT_EPOCH":288,"BSTAR":-0.01336,"MEAN_MOTION_DOT":-0.01206969,"MEAN_MOTION_DDOT":0},{"OBJECT_NAME":"STARLINK-4442","OBJECT_ID":"2022-099R","EPOCH":"2022-08-29T16:00:00.999936","MEAN_MOTION":15.65600919,"ECCENTRICITY":0.0001841,"INCLINATION":97.6561,"RA_OF_ASC_NODE":0.4682,"ARG_OF_PERICENTER":57.525,"MEAN_ANOMALY":13.5672,"EPHEMERIS_TYPE":0,"CLASSIFICATION_TYPE":"U","NORAD_CAT_ID":53480,"ELEMENT_SET_NO":999,"REV_AT_EPOCH":288,"BSTAR":-0.013472,"MEAN_MOTION_DOT":-0.01215407,"MEAN_MOTION_DDOT":0},{"OBJECT_NAME":"STARLINK-4302","OBJECT_ID":"2022-099S","EPOCH":"2022-08-29T16:00:00.999936","MEAN_MOTION":15.65630885,"ECCENTRICITY":0.0001934,"INCLINATION":97.6557,"RA_OF_ASC_NODE":0.4681,"ARG_OF_PERICENTER":51.7184,"MEAN_ANOMALY":22.5864,"EPHEMERIS_TYPE":0,"CLASSIFICATION_TYPE":"U","NORAD_CAT_ID":53481,"ELEMENT_SET_NO":999,"REV_AT_EPOCH":288,"BSTAR":-0.013358,"MEAN_MOTION_DOT":-0.01207475,"MEAN_MOTION_DDOT":0},{"OBJECT_NAME":"STARLINK-4360","OBJECT_ID":"2022-099T","EPOCH":"2022-08-29T16:00:00.999936","MEAN_MOTION":15.65622814,"ECCENTRICITY":0.0001997,"INCLINATION":97.6557,"RA_OF_ASC_NODE":0.4677,"ARG_OF_PERICENTER":47.9263,"MEAN_ANOMALY":25.7372,"EPHEMERIS_TYPE":0,"CLASSIFICATION_TYPE":"U","NORAD_CAT_ID":53482,"ELEMENT_SET_NO":999,"REV_AT_EPOCH":288,"BSTAR":-0.013349,"MEAN_MOTION_DOT":-0.01206416,"MEAN_MOTION_DDOT":0},{"OBJECT_NAME":"STARLINK-4401","OBJECT_ID":"2022-099U","EPOCH":"2022-08-29T16:00:00.999936","MEAN_MOTION":15.65652142,"ECCENTRICITY":0.0001836,"INCLINATION":97.6557,"RA_OF_ASC_NODE":0.468,"ARG_OF_PERICENTER":58.3572,"MEAN_ANOMALY":17.8729,"EPHEMERIS_TYPE":0,"CLASSIFICATION_TYPE":"U","NORAD_CAT_ID":53483,"ELEMENT_SET_NO":999,"REV_AT_EPOCH":288,"BSTAR":-0.013343,"MEAN_MOTION_DOT":-0.01207138,"MEAN_MOTION_DDOT":0},{"OBJECT_NAME":"STARLINK-4426","OBJECT_ID":"2022-099V","EPOCH":"2022-08-29T16:00:00.999936","MEAN_MOTION":15.65637942,"ECCENTRICITY":0.0001608,"INCLINATION":97.6556,"RA_OF_ASC_NODE":0.4678,"ARG_OF_PERICENTER":95.0992,"MEAN_ANOMALY":339.8472,"EPHEMERIS_TYPE":0,"CLASSIFICATION_TYPE":"U","NORAD_CAT_ID":53484,"ELEMENT_SET_NO":999,"REV_AT_EPOCH":288,"BSTAR":-0.013347,"MEAN_MOTION_DOT":-0.01206749,"MEAN_MOTION_DDOT":0},{"OBJECT_NAME":"STARLINK-4430","OBJECT_ID":"2022-099W","EPOCH":"2022-08-29T16:00:00.999936","MEAN_MOTION":15.65666011,"ECCENTRICITY":0.0001985,"INCLINATION":97.6557,"RA_OF_ASC_NODE":0.4682,"ARG_OF_PERICENTER":48.697,"MEAN_ANOMALY":28.8165,"EPHEMERIS_TYPE":0,"CLASSIFICATION_TYPE":"U","NORAD_CAT_ID":53485,"ELEMENT_SET_NO":999,"REV_AT_EPOCH":288,"BSTAR":-0.013329,"MEAN_MOTION_DOT":-0.01206665,"MEAN_MOTION_DDOT":0},{"OBJECT_NAME":"STARLINK-4431","OBJECT_ID":"2022-099X","EPOCH":"2022-08-29T16:00:00.999936","MEAN_MOTION":15.65644808,"ECCENTRICITY":0.00018,"INCLINATION":97.6557,"RA_OF_ASC_NODE":0.468,"ARG_OF_PERICENTER":60.7579,"MEAN_ANOMALY":14.8306,"EPHEMERIS_TYPE":0,"CLASSIFICATION_TYPE":"U","NORAD_CAT_ID":53486,"ELEMENT_SET_NO":999,"REV_AT_EPOCH":288,"BSTAR":-0.013344,"MEAN_MOTION_DOT":-0.01206884,"MEAN_MOTION_DDOT":0},{"OBJECT_NAME":"STARLINK-4432","OBJECT_ID":"2022-099Y","EPOCH":"2022-08-29T16:00:00.999936","MEAN_MOTION":15.656922,"ECCENTRICITY":0.0001891,"INCLINATION":97.6557,"RA_OF_ASC_NODE":0.4689,"ARG_OF_PERICENTER":52.4872,"MEAN_ANOMALY":26.3026,"EPHEMERIS_TYPE":0,"CLASSIFICATION_TYPE":"U","NORAD_CAT_ID":53487,"ELEMENT_SET_NO":999,"REV_AT_EPOCH":288,"BSTAR":-0.013497,"MEAN_MOTION_DOT":-0.01221488,"MEAN_MOTION_DDOT":0},{"OBJECT_NAME":"STARLINK-4421","OBJECT_ID":"2022-099Z","EPOCH":"2022-08-29T16:00:00.999936","MEAN_MOTION":15.656687,"ECCENTRICITY":0.0001791,"INCLINATION":97.6558,"RA_OF_ASC_NODE":0.4688,"ARG_OF_PERICENTER":58.7312,"MEAN_ANOMALY":18.1351,"EPHEMERIS_TYPE":0,"CLASSIFICATION_TYPE":"U","NORAD_CAT_ID":53488,"ELEMENT_SET_NO":999,"REV_AT_EPOCH":288,"BSTAR":-0.013474,"MEAN_MOTION_DOT":-0.01218532,"MEAN_MOTION_DDOT":0}]
